start=new Date('2021-09-08T00:00:00.000Z').valueOf();
sats=[{"MEAN_MOTION":"15.06392653","TLE_LINE2":"2 48644  53.0544 301.1683 0000777 114.3351 245.7719 15.06392653 15944","RA_OF_ASC_NODE":"301.1683","OBJECT_NAME":"STARLINK-2695","TLE_LINE1":"1 48644U 21044G   21250.83177711 -.00000704  00000-0 -28393-4 0  9994","REV_AT_EPOCH":"1594","COUNTRY_CODE":"US","MEAN_ELEMENT_THEORY":"SGP4","MEAN_MOTION_DDOT":"0.0000000000000","PERIOD":"95.593","EPOCH":"2021-09-07T19:57:45.542304","SITE":"AFETR","OBJECT_TYPE":"PAYLOAD","DECAY_DATE":null,"OBJECT_ID":"2021-044G","RCS_SIZE":"LARGE","FILE":"3110443","EPHEMERIS_TYPE":"0","ELEMENT_SET_NO":"999","BSTAR":"-0.00002839300000","SEMIMAJOR_AXIS":"6925.371","NORAD_CAT_ID":"48644","ECCENTRICITY":"0.00007770","CENTER_NAME":"EARTH","APOAPSIS":"547.774","PERIAPSIS":"546.698","GP_ID":"184284974","MEAN_MOTION_DOT":"-0.00000704","CLASSIFICATION_TYPE":"U","LAUNCH_DATE":"2021-05-26","TIME_SYSTEM":"UTC","REF_FRAME":"TEME","ARG_OF_PERICENTER":"114.3351","INCLINATION":"53.0544","MEAN_ANOMALY":"245.7719"},{"LAUNCH_DATE":"2021-05-26","TIME_SYSTEM":"UTC","REF_FRAME":"TEME","ARG_OF_PERICENTER":"123.4296","INCLINATION":"53.0547","MEAN_ANOMALY":"236.6752","BSTAR":"-0.00000462250000","SEMIMAJOR_AXIS":"6925.352","NORAD_CAT_ID":"48645","ECCENTRICITY":"0.00006150","APOAPSIS":"547.643","CENTER_NAME":"EARTH","PERIAPSIS":"546.791","GP_ID":"184284748","CLASSIFICATION_TYPE":"U","MEAN_MOTION_DOT":"-0.00000350","REV_AT_EPOCH":"1591","COUNTRY_CODE":"US","MEAN_ELEMENT_THEORY":"SGP4","MEAN_MOTION_DDOT":"0.0000000000000","PERIOD":"95.592","EPOCH":"2021-09-07T15:05:49.482816","SITE":"AFETR","OBJECT_TYPE":"PAYLOAD","OBJECT_ID":"2021-044H","DECAY_DATE":null,"RCS_SIZE":"LARGE","FILE":"3110443","EPHEMERIS_TYPE":"0","ELEMENT_SET_NO":"999","MEAN_MOTION":"15.06398954","TLE_LINE2":"2 48645  53.0547 302.0803 0000615 123.4296 236.6752 15.06398954 15915","RA_OF_ASC_NODE":"302.0803","OBJECT_NAME":"STARLINK-2733","TLE_LINE1":"1 48645U 21044H   21250.62904494 -.00000350  00000-0 -46225-5 0  9990"},{"NORAD_CAT_ID":"48646","ECCENTRICITY":"0.00004670","BSTAR":"0.00008857300000","SEMIMAJOR_AXIS":"6925.347","GP_ID":"184257953","CLASSIFICATION_TYPE":"U","MEAN_MOTION_DOT":"0.00001038","APOAPSIS":"547.536","CENTER_NAME":"EARTH","PERIAPSIS":"546.889","REF_FRAME":"TEME","LAUNCH_DATE":"2021-05-26","TIME_SYSTEM":"UTC","ARG_OF_PERICENTER":"126.2065","MEAN_ANOMALY":"233.8967","INCLINATION":"53.0549","RA_OF_ASC_NODE":"302.9915","TLE_LINE2":"2 48646  53.0549 302.9915 0000467 126.2065 233.8967 15.06400372 15882","MEAN_MOTION":"15.06400372","TLE_LINE1":"1 48646U 21044J   21250.42630959  .00001038  00000-0  88573-4 0  9994","OBJECT_NAME":"STARLINK-2732","DECAY_DATE":null,"OBJECT_ID":"2021-044J","EPOCH":"2021-09-07T10:13:53.148576","SITE":"AFETR","OBJECT_TYPE":"PAYLOAD","RCS_SIZE":"LARGE","REV_AT_EPOCH":"1588","COUNTRY_CODE":"US","MEAN_ELEMENT_THEORY":"SGP4","PERIOD":"95.592","MEAN_MOTION_DDOT":"0.0000000000000","ELEMENT_SET_NO":"999","EPHEMERIS_TYPE":"0","FILE":"3110255"},{"NORAD_CAT_ID":"48647","ECCENTRICITY":"0.00006940","BSTAR":"-0.00000553280000","SEMIMAJOR_AXIS":"6925.355","GP_ID":"184258957","MEAN_MOTION_DOT":"-0.00000364","CLASSIFICATION_TYPE":"U","CENTER_NAME":"EARTH","APOAPSIS":"547.700","PERIAPSIS":"546.739","REF_FRAME":"TEME","LAUNCH_DATE":"2021-05-26","TIME_SYSTEM":"UTC","ARG_OF_PERICENTER":"139.5715","INCLINATION":"53.0557","MEAN_ANOMALY":"220.5326","RA_OF_ASC_NODE":"302.4169","MEAN_MOTION":"15.06397970","TLE_LINE2":"2 48647  53.0557 302.4169 0000694 139.5715 220.5326 15.06397970 16803","TLE_LINE1":"1 48647U 21044K   21250.55532726 -.00000364  00000-0 -55328-5 0  9998","OBJECT_NAME":"STARLINK-2691","SITE":"AFETR","OBJECT_TYPE":"PAYLOAD","EPOCH":"2021-09-07T13:19:40.275264","OBJECT_ID":"2021-044K","DECAY_DATE":null,"RCS_SIZE":"LARGE","MEAN_ELEMENT_THEORY":"SGP4","COUNTRY_CODE":"US","REV_AT_EPOCH":"1680","PERIOD":"95.592","MEAN_MOTION_DDOT":"0.0000000000000","ELEMENT_SET_NO":"999","FILE":"3110295","EPHEMERIS_TYPE":"0"},{"TLE_LINE1":"1 48648U 21044L   21250.55437722  .00000373  00000-0  43918-4 0  9998","OBJECT_NAME":"STARLINK-2521","RA_OF_ASC_NODE":"302.4173","TLE_LINE2":"2 48648  53.0556 302.4173 0000703 122.0256 238.0801 15.06395908 16740","MEAN_MOTION":"15.06395908","ELEMENT_SET_NO":"999","FILE":"3110297","EPHEMERIS_TYPE":"0","EPOCH":"2021-09-07T13:18:18.191808","SITE":"AFETR","OBJECT_TYPE":"PAYLOAD","DECAY_DATE":null,"OBJECT_ID":"2021-044L","RCS_SIZE":"LARGE","MEAN_ELEMENT_THEORY":"SGP4","COUNTRY_CODE":"US","REV_AT_EPOCH":"1674","PERIOD":"95.592","MEAN_MOTION_DDOT":"0.0000000000000","GP_ID":"184259500","MEAN_MOTION_DOT":"0.00000373","CLASSIFICATION_TYPE":"U","APOAPSIS":"547.713","CENTER_NAME":"EARTH","PERIAPSIS":"546.739","NORAD_CAT_ID":"48648","ECCENTRICITY":"0.00007030","BSTAR":"0.00004391800000","SEMIMAJOR_AXIS":"6925.361","ARG_OF_PERICENTER":"122.0256","INCLINATION":"53.0556","MEAN_ANOMALY":"238.0801","REF_FRAME":"TEME","LAUNCH_DATE":"2021-05-26","TIME_SYSTEM":"UTC"},{"TIME_SYSTEM":"UTC","LAUNCH_DATE":"2021-05-26","REF_FRAME":"TEME","MEAN_ANOMALY":"234.1621","INCLINATION":"53.0505","ARG_OF_PERICENTER":"125.9430","SEMIMAJOR_AXIS":"6925.384","BSTAR":"-0.00003430400000","ECCENTRICITY":"0.00006670","NORAD_CAT_ID":"48649","PERIAPSIS":"546.788","CENTER_NAME":"EARTH","APOAPSIS":"547.711","MEAN_MOTION_DOT":"-0.00000792","CLASSIFICATION_TYPE":"U","GP_ID":"184285068","PERIOD":"95.593","MEAN_MOTION_DDOT":"0.0000000000000","COUNTRY_CODE":"US","REV_AT_EPOCH":"1594","MEAN_ELEMENT_THEORY":"SGP4","RCS_SIZE":"LARGE","DECAY_DATE":null,"OBJECT_ID":"2021-044M","EPOCH":"2021-09-07T21:12:03.717504","SITE":"AFETR","OBJECT_TYPE":"PAYLOAD","EPHEMERIS_TYPE":"0","FILE":"3110443","ELEMENT_SET_NO":"999","MEAN_MOTION":"15.06388274","TLE_LINE2":"2 48649  53.0505 300.9760 0000667 125.9430 234.1621 15.06388274 15941","RA_OF_ASC_NODE":"300.9760","OBJECT_NAME":"STARLINK-2673","TLE_LINE1":"1 48649U 21044M   21250.88337636 -.00000792  00000-0 -34304-4 0  9994"},{"PERIOD":"95.592","MEAN_MOTION_DDOT":"0.0000000000000","REV_AT_EPOCH":"1594","COUNTRY_CODE":"US","MEAN_ELEMENT_THEORY":"SGP4","RCS_SIZE":"LARGE","SITE":"AFETR","OBJECT_TYPE":"PAYLOAD","EPOCH":"2021-09-07T21:06:44.337312","DECAY_DATE":null,"OBJECT_ID":"2021-044N","FILE":"3110443","EPHEMERIS_TYPE":"0","ELEMENT_SET_NO":"999","TLE_LINE2":"2 48650  53.0524 300.9622 0000450 172.8120 187.2876 15.06403734 15947","MEAN_MOTION":"15.06403734","RA_OF_ASC_NODE":"300.9622","OBJECT_NAME":"STARLINK-2672","TLE_LINE1":"1 48650U 21044N   21250.87967983  .00000788  00000-0  71768-4 0  9997","TIME_SYSTEM":"UTC","LAUNCH_DATE":"2021-05-26","REF_FRAME":"TEME","INCLINATION":"53.0524","MEAN_ANOMALY":"187.2876","ARG_OF_PERICENTER":"172.8120","SEMIMAJOR_AXIS":"6925.337","BSTAR":"0.00007176800000","ECCENTRICITY":"0.00004500","NORAD_CAT_ID":"48650","PERIAPSIS":"546.890","APOAPSIS":"547.514","CENTER_NAME":"EARTH","CLASSIFICATION_TYPE":"U","MEAN_MOTION_DOT":"0.00000788","GP_ID":"184284935"},{"ARG_OF_PERICENTER":"152.1773","MEAN_ANOMALY":"207.9248","INCLINATION":"53.0544","LAUNCH_DATE":"2021-05-26","TIME_SYSTEM":"UTC","REF_FRAME":"TEME","APOAPSIS":"547.653","CENTER_NAME":"EARTH","PERIAPSIS":"546.812","GP_ID":"184284842","CLASSIFICATION_TYPE":"U","MEAN_MOTION_DOT":"-0.00000710","BSTAR":"-0.00002878700000","SEMIMAJOR_AXIS":"6925.367","NORAD_CAT_ID":"48651","ECCENTRICITY":"0.00006070","EPHEMERIS_TYPE":"0","FILE":"3110443","ELEMENT_SET_NO":"999","REV_AT_EPOCH":"1594","COUNTRY_CODE":"US","MEAN_ELEMENT_THEORY":"SGP4","PERIOD":"95.593","MEAN_MOTION_DDOT":"0.0000000000000","OBJECT_ID":"2021-044P","DECAY_DATE":null,"SITE":"AFETR","OBJECT_TYPE":"PAYLOAD","EPOCH":"2021-09-07T21:01:26.978880","RCS_SIZE":"LARGE","OBJECT_NAME":"STARLINK-2731","TLE_LINE1":"1 48651U 21044P   21250.87600670 -.00000710  00000-0 -28787-4 0  9995","TLE_LINE2":"2 48651  53.0544 300.9762 0000607 152.1773 207.9248 15.06393857 15941","MEAN_MOTION":"15.06393857","RA_OF_ASC_NODE":"300.9762"},{"LAUNCH_DATE":"2021-05-26","TIME_SYSTEM":"UTC","REF_FRAME":"TEME","ARG_OF_PERICENTER":"126.0680","INCLINATION":"53.0536","MEAN_ANOMALY":"234.0375","BSTAR":"0.00005650900000","SEMIMAJOR_AXIS":"6925.373","NORAD_CAT_ID":"48652","ECCENTRICITY":"0.00007100","CENTER_NAME":"EARTH","APOAPSIS":"547.729","PERIAPSIS":"546.746","GP_ID":"184284975","MEAN_MOTION_DOT":"0.00000560","CLASSIFICATION_TYPE":"U","COUNTRY_CODE":"US","MEAN_ELEMENT_THEORY":"SGP4","REV_AT_EPOCH":"1594","PERIOD":"95.593","MEAN_MOTION_DDOT":"0.0000000000000","OBJECT_TYPE":"PAYLOAD","SITE":"AFETR","EPOCH":"2021-09-07T20:56:08.285568","DECAY_DATE":null,"OBJECT_ID":"2021-044Q","RCS_SIZE":"LARGE","FILE":"3110443","EPHEMERIS_TYPE":"0","ELEMENT_SET_NO":"999","TLE_LINE2":"2 48652  53.0536 300.9867 0000710 126.0680 234.0375 15.06392112 15946","MEAN_MOTION":"15.06392112","RA_OF_ASC_NODE":"300.9867","OBJECT_NAME":"STARLINK-2727","TLE_LINE1":"1 48652U 21044Q   21250.87231812  .00000560  00000-0  56509-4 0  9998"},{"OBJECT_NAME":"STARLINK-2720","TLE_LINE1":"1 48653U 21044R   21250.86863470 -.00000885  00000-0 -40572-4 0  9994","TLE_LINE2":"2 48653  53.0553 301.0071 0000444 143.1060 216.9959 15.06403703 15947","MEAN_MOTION":"15.06403703","RA_OF_ASC_NODE":"301.0071","EPHEMERIS_TYPE":"0","FILE":"3110443","ELEMENT_SET_NO":"999","PERIOD":"95.592","MEAN_MOTION_DDOT":"0.0000000000000","REV_AT_EPOCH":"1594","COUNTRY_CODE":"US","MEAN_ELEMENT_THEORY":"SGP4","RCS_SIZE":"LARGE","OBJECT_ID":"2021-044R","DECAY_DATE":null,"SITE":"AFETR","OBJECT_TYPE":"PAYLOAD","EPOCH":"2021-09-07T20:50:50.038080","PERIAPSIS":"546.895","CENTER_NAME":"EARTH","APOAPSIS":"547.510","CLASSIFICATION_TYPE":"U","MEAN_MOTION_DOT":"-0.00000885","GP_ID":"184284749","SEMIMAJOR_AXIS":"6925.337","BSTAR":"-0.00004057200000","ECCENTRICITY":"0.00004440","NORAD_CAT_ID":"48653","MEAN_ANOMALY":"216.9959","INCLINATION":"53.0553","ARG_OF_PERICENTER":"143.1060","TIME_SYSTEM":"UTC","LAUNCH_DATE":"2021-05-26","REF_FRAME":"TEME"}];
